{"type": "FeatureCollection", "features": [ {"type": "Feature", "properties": {"norad_id": 32324, "name": "FENGYUN 1C DEB", "group": "fengyun-1c-debris", "lat": -71.89115945545787, "lon": 134.69816896320543, "alt_km": 850.470364164199, "timestamp": "2025-12-27T04:40:45.791663+00:00", "meta": {"OBJECT_NAME": "FENGYUN 1C DEB", "OBJECT_ID": "1999-025CXR", "EPOCH": "2025-12-24T17:23:16.128672", "MEAN_MOTION": 14.09166254, "ECCENTRICITY": 0.00496208, "INCLINATION": 99.5324, "RA_OF_ASC_NODE": 101.1678, "ARG_OF_PERICENTER": 350.6597, "MEAN_ANOMALY": 9.3643, "EPHEMERIS_TYPE": 0, "CLASSIFICATION_TYPE": "U", "NORAD_CAT_ID": 32324, "ELEMENT_SET_NO": 999, "REV_AT_EPOCH": 64167, "BSTAR": 0.00050694088, "MEAN_MOTION_DOT": 8.41e-06, "MEAN_MOTION_DDOT": 0}, "tle": {"line1": "1 32324U 99025CXR 25358.72449223  .00000841  00000+0  50694-3 0  9994", "line2": "2 32324  99.5324 101.1678 0049620 350.6597   9.3643 14.09166254641675"}}, "geometry": {"type": "Point", "coordinates": [134.69816896320543, -71.89115945545787]}}, {"type": "Feature", "properties": {"norad_id": 32326, "name": "FENGYUN 1C DEB", "group": "fengyun-1c-debris", "lat": -78.71981007330206, "lon": 60.4138546706536, "alt_km": 1279.5246723776472, "timestamp": "2025-12-27T04:40:45.791672+00:00", "meta": {"OBJECT_NAME": "FENGYUN 1C DEB", "OBJECT_ID": "1999-025CXT", "EPOCH": "2025-12-25T00:34:20.838720", "MEAN_MOTION": 13.69298824, "ECCENTRICITY": 0.0386861, "INCLINATION": 98.4894, "RA_OF_ASC_NODE": 286.9798, "ARG_OF_PERICENTER": 106.5572, "MEAN_ANOMALY": 257.8432, "EPHEMERIS_TYPE": 0, "CLASSIFICATION_TYPE": "U", "NORAD_CAT_ID": 32326, "ELEMENT_SET_NO": 999, "REV_AT_EPOCH": 63350, "BSTAR": 0.00054460155, "MEAN_MOTION_DOT": 7.67e-06, "MEAN_MOTION_DDOT": 0}, "tle": {"line1": "1 32326U 99025CXT 25359.02385230  .00000767  00000+0  54460-3 0  9999", "line2": "2 32326  98.4894 286.9798 0386861 106.5572 257.8432 13.69298824633507"}}, "geometry": {"type": "Point", "coordinates": [60.4138546706536, -78.71981007330206]}}, {"type": "Feature", "properties": {"norad_id": 32332, "name": "FENGYUN 1C DEB", "group": "fengyun-1c-debris", "lat": 6.521890691975275, "lon": 54.118501333130716, "alt_km": 913.0074182697117, "timestamp": "2025-12-27T04:40:45.791682+00:00", "meta": {"OBJECT_NAME": "FENGYUN 1C DEB", "OBJECT_ID": "1999-025CXZ", "EPOCH": "2025-12-26T21:46:23.979072", "MEAN_MOTION": 13.9721104, "ECCENTRICITY": 0.02854259, "INCLINATION": 99.131, "RA_OF_ASC_NODE": 54.8858, "ARG_OF_PERICENTER": 273.7906, "MEAN_ANOMALY": 83.0668, "EPHEMERIS_TYPE": 0, "CLASSIFICATION_TYPE": "U", "NORAD_CAT_ID": 32332, "ELEMENT_SET_NO": 999, "REV_AT_EPOCH": 93234, "BSTAR": 0.001752972, "MEAN_MOTION_DOT": 3.419e-05, "MEAN_MOTION_DDOT": 0}, "tle": {"line1": "1 32332U 99025CXZ 25360.90722198  .00003419  00000+0  17530-2 0  9996", "line2": "2 32332  99.1310  54.8858 0285425 273.7906  83.0668 13.97211040932346"}}, "geometry": {"type": "Point", "coordinates": [54.118501333130716, 6.521890691975275]}}, {"type": "Feature", "properties": {"norad_id": 32334, "name": "FENGYUN 1C DEB", "group": "fengyun-1c-debris", "lat": 66.83616193340721, "lon": 33.416660315355756, "alt_km": 929.9717423179327, "timestamp": "2025-12-27T04:40:45.791693+00:00", "meta": {"OBJECT_NAME": "FENGYUN 1C DEB", "OBJECT_ID": "1999-025CYB", "EPOCH": "2025-12-26T21:29:47.176224", "MEAN_MOTION": 14.01655329, "ECCENTRICITY": 0.006734, "INCLINATION": 99.2501, "RA_OF_ASC_NODE": 55.502, "ARG_OF_PERICENTER": 241.6261, "MEAN_ANOMALY": 117.8103, "EPHEMERIS_TYPE": 0, "CLASSIFICATION_TYPE": "U", "NORAD_CAT_ID": 32334, "ELEMENT_SET_NO": 999, "REV_AT_EPOCH": 94138, "BSTAR": 0.00035380469, "MEAN_MOTION_DOT": 5e-06, "MEAN_MOTION_DDOT": 0}, "tle": {"line1": "1 32334U 99025CYB 25360.89568491  .00000500  00000+0  35380-3 0  9992", "line2": "2 32334  99.2501  55.5020 0067340 241.6261 117.8103 14.01655329941384"}}, "geometry": {"type": "Point", "coordinates": [33.416660315355756, 66.83616193340721]}}, {"type": "Feature", "properties": {"norad_id": 32340, "name": "FENGYUN 1C DEB", "group": "fengyun-1c-debris", "lat": -1.4730117949531891, "lon": -171.6745091753602, "alt_km": 638.8174890806768, "timestamp": "2025-12-27T04:40:45.791703+00:00", "meta": {"OBJECT_NAME": "FENGYUN 1C DEB", "OBJECT_ID": "1999-025CYH", "EPOCH": "2025-12-23T07:03:11.292480", "MEAN_MOTION": 14.74893451, "ECCENTRICITY": 0.00335712, "INCLINATION": 98.9803, "RA_OF_ASC_NODE": 4.235, "ARG_OF_PERICENTER": 260.0415, "MEAN_ANOMALY": 99.7002, "EPHEMERIS_TYPE": 0, "CLASSIFICATION_TYPE": "U", "NORAD_CAT_ID": 32340, "ELEMENT_SET_NO": 999, "REV_AT_EPOCH": 97352, "BSTAR": 0.0022824537, "MEAN_MOTION_DOT": 0.00015424, "MEAN_MOTION_DDOT": 0}, "tle": {"line1": "1 32340U 99025CYH 25357.29388070  .00015424  00000+0  22825-2 0  9992", "line2": "2 32340  98.9803   4.2350 0033571 260.0415  99.7002 14.74893451973521"}}, "geometry": {"type": "Point", "coordinates": [-171.6745091753602, -1.4730117949531891]}}, {"type": "Feature", "properties": {"norad_id": 32342, "name": "FENGYUN 1C DEB", "group": "fengyun-1c-debris", "lat": -44.21608338057388, "lon": 17.89234259221204, "alt_km": 849.4900630573866, "timestamp": "2025-12-27T04:40:45.791713+00:00", "meta": {"OBJECT_NAME": "FENGYUN 1C DEB", "OBJECT_ID": "1999-025CYK", "EPOCH": "2025-12-27T00:05:35.172384", "MEAN_MOTION": 14.13404745, "ECCENTRICITY": 0.00068427, "INCLINATION": 98.67, "RA_OF_ASC_NODE": 9.1693, "ARG_OF_PERICENTER": 308.0113, "MEAN_ANOMALY": 115.4063, "EPHEMERIS_TYPE": 0, "CLASSIFICATION_TYPE": "U", "NORAD_CAT_ID": 32342, "ELEMENT_SET_NO": 999, "REV_AT_EPOCH": 93919, "BSTAR": 0.00011768035, "MEAN_MOTION_DOT": 1.78e-06, "MEAN_MOTION_DDOT": 0}, "tle": {"line1": "1 32342U 99025CYK 25361.00387931  .00000178  00000+0  11768-3 0  9998", "line2": "2 32342  98.6700   9.1693 0006842 308.0113 115.4063 14.13404745939194"}}, "geometry": {"type": "Point", "coordinates": [17.89234259221204, -44.21608338057388]}}, {"type": "Feature", "properties": {"norad_id": 32343, "name": "FENGYUN 1C DEB", "group": "fengyun-1c-debris", "lat": 70.68812408805067, "lon": -166.8117428492977, "alt_km": 716.6061731211557, "timestamp": "2025-12-27T04:40:45.791722+00:00", "meta": {"OBJECT_NAME": "FENGYUN 1C DEB", "OBJECT_ID": "1999-025CYL", "EPOCH": "2025-12-13T05:18:56.833632", "MEAN_MOTION": 14.19848796, "ECCENTRICITY": 0.01521973, "INCLINATION": 98.6084, "RA_OF_ASC_NODE": 333.9812, "ARG_OF_PERICENTER": 126.2805, "MEAN_ANOMALY": 235.2541, "EPHEMERIS_TYPE": 0, "CLASSIFICATION_TYPE": "U", "NORAD_CAT_ID": 32343, "ELEMENT_SET_NO": 999, "REV_AT_EPOCH": 64720, "BSTAR": 0.00041342117, "MEAN_MOTION_DOT": 9.43e-06, "MEAN_MOTION_DDOT": 0}, "tle": {"line1": "1 32343U 99025CYL 25347.22149113  .00000943  00000+0  41342-3 0  9996", "line2": "2 32343  98.6084 333.9812 0152197 126.2805 235.2541 14.19848796647208"}}, "geometry": {"type": "Point", "coordinates": [-166.8117428492977, 70.68812408805067]}}, {"type": "Feature", "properties": {"norad_id": 32350, "name": "FENGYUN 1C DEB", "group": "fengyun-1c-debris", "lat": -71.94221551716788, "lon": 72.02642854094415, "alt_km": 562.8469500750862, "timestamp": "2025-12-27T04:40:45.791733+00:00", "meta": {"OBJECT_NAME": "FENGYUN 1C DEB", "OBJECT_ID": "1999-025CYT", "EPOCH": "2025-12-23T20:00:36.959040", "MEAN_MOTION": 14.52655293, "ECCENTRICITY": 0.0266548, "INCLINATION": 98.2271, "RA_OF_ASC_NODE": 42.3822, "ARG_OF_PERICENTER": 264.2753, "MEAN_ANOMALY": 92.7999, "EPHEMERIS_TYPE": 0, "CLASSIFICATION_TYPE": "U", "NORAD_CAT_ID": 32350, "ELEMENT_SET_NO": 999, "REV_AT_EPOCH": 97688, "BSTAR": 0.00070823, "MEAN_MOTION_DOT": 4.579e-05, "MEAN_MOTION_DDOT": 0}, "tle": {"line1": "1 32350U 99025CYT 25357.83376110  .00004579  00000+0  70823-3 0  9996", "line2": "2 32350  98.2271  42.3822 0266548 264.2753  92.7999 14.52655293976880"}}, "geometry": {"type": "Point", "coordinates": [72.02642854094415, -71.94221551716788]}}, {"type": "Feature", "properties": {"norad_id": 32352, "name": "FENGYUN 1C DEB", "group": "fengyun-1c-debris", "lat": 13.397145934092006, "lon": 103.71157248254191, "alt_km": 685.7085197533725, "timestamp": "2025-12-27T04:40:45.791743+00:00", "meta": {"OBJECT_NAME": "FENGYUN 1C DEB", "OBJECT_ID": "1999-025CYV", "EPOCH": "2025-12-25T00:16:27.065568", "MEAN_MOTION": 14.41437454, "ECCENTRICITY": 0.01226682, "INCLINATION": 98.7798, "RA_OF_ASC_NODE": 279.3585, "ARG_OF_PERICENTER": 134.5255, "MEAN_ANOMALY": 226.6034, "EPHEMERIS_TYPE": 0, "CLASSIFICATION_TYPE": "U", "NORAD_CAT_ID": 32352, "ELEMENT_SET_NO": 999, "REV_AT_EPOCH": 65446, "BSTAR": 0.00020280465, "MEAN_MOTION_DOT": 6.69e-06, "MEAN_MOTION_DDOT": 0}, "tle": {"line1": "1 32352U 99025CYV 25359.01142437  .00000669  00000+0  20280-3 0  9991", "line2": "2 32352  98.7798 279.3585 0122668 134.5255 226.6034 14.41437454654469"}}, "geometry": {"type": "Point", "coordinates": [103.71157248254191, 13.397145934092006]}}, {"type": "Feature", "properties": {"norad_id": 32353, "name": "FENGYUN 1C DEB", "group": "fengyun-1c-debris", "lat": -5.520717275417741, "lon": -3.46111076799042, "alt_km": 802.7270457648483, "timestamp": "2025-12-27T04:40:45.791774+00:00", "meta": {"OBJECT_NAME": "FENGYUN 1C DEB", "OBJECT_ID": "1999-025CYW", "EPOCH": "2025-12-24T05:40:29.330112", "MEAN_MOTION": 14.03902083, "ECCENTRICITY": 0.01243796, "INCLINATION": 98.9207, "RA_OF_ASC_NODE": 174.5047, "ARG_OF_PERICENTER": 167.3058, "MEAN_ANOMALY": 193.129, "EPHEMERIS_TYPE": 0, "CLASSIFICATION_TYPE": "U", "NORAD_CAT_ID": 32353, "ELEMENT_SET_NO": 999, "REV_AT_EPOCH": 63355, "BSTAR": 0.0025490541, "MEAN_MOTION_DOT": 4.268e-05, "MEAN_MOTION_DDOT": 0}, "tle": {"line1": "1 32353U 99025CYW 25358.23645058  .00004268  00000+0  25491-2 0  9999", "line2": "2 32353  98.9207 174.5047 0124379 167.3058 193.1290 14.03902083633554"}}, "geometry": {"type": "Point", "coordinates": [-3.46111076799042, -5.520717275417741]}}]}